{
  "type": "FeatureCollection",
  "features": [
    {
      "type": "Feature",
      "properties": {
        "norad_id": 66450,
        "name": "STARLINK-35334",
        "group": "last-30-days",
        "lat": 22.692534614720252,
        "lon": 82.82611822073164,
        "alt_km": 411.60173350234436,
        "timestamp": "2025-12-11T05:00:25.074130+00:00",
        "meta_object_name": "STARLINK-35334",
        "meta_object_id": "2025-259AE",
        "meta_epoch": "2025-12-10T13:24:02.373120",
        "meta_mean_motion": 15.50613633,
        "meta_eccentricity": 0.0002029,
        "meta_inclination": 43.003,
        "meta_ra_of_asc_node": 59.9713,
        "meta_arg_of_pericenter": 266.842,
        "meta_mean_anomaly": 93.2208,
        "meta_ephemeris_type": 0,
        "meta_classification_type": "U",
        "meta_norad_cat_id": 66450,
        "meta_element_set_no": 999,
        "meta_rev_at_epoch": 583,
        "meta_bstar": 0.0021725,
        "meta_mean_motion_dot": 0.00129395,
        "meta_mean_motion_ddot": 0,
        "tle_line1": "1 66450U 25259AE  25344.55836080  .00129395  00000+0  21725-2 0  9994",
        "tle_line2": "2 66450  43.0030  59.9713 0002029 266.8420  93.2208 15.50613633  5831"
      },
      "geometry": {
        "type": "Point",
        "coordinates": [
          82.82611822073164,
          22.692534614720252
        ]
      }
    },
    {
      "type": "Feature",
      "properties": {
        "norad_id": 66454,
        "name": "VIASAT-3 F2",
        "group": "last-30-days",
        "lat": 0.7457142434962911,
        "lon": -59.72324938163666,
        "alt_km": 24351.08174842974,
        "timestamp": "2025-12-11T05:00:25.074144+00:00",
        "meta_object_name": "VIASAT-3 F2",
        "meta_object_id": "2025-261A",
        "meta_epoch": "2025-12-08T12:11:15.383616",
        "meta_mean_motion": 2.19142646,
        "meta_eccentricity": 0.22792154,
        "meta_inclination": 5.457,
        "meta_ra_of_asc_node": 292.6501,
        "meta_arg_of_pericenter": 190.5469,
        "meta_mean_anomaly": 204.5187,
        "meta_ephemeris_type": 0,
        "meta_classification_type": "U",
        "meta_norad_cat_id": 66454,
        "meta_element_set_no": 999,
        "meta_rev_at_epoch": 55,
        "meta_bstar": 0,
        "meta_mean_motion_dot": -8.1e-07,
        "meta_mean_motion_ddot": 0,
        "tle_line1": "1 66454U 25261A   25342.50781694 -.00000081  00000+0  00000+0 0  9995",
        "tle_line2": "2 66454   5.4570 292.6501 2279215 190.5469 204.5187  2.19142646   557"
      },
      "geometry": {
        "type": "Point",
        "coordinates": [
          -59.72324938163666,
          0.7457142434962911
        ]
      }
    },
    {
      "type": "Feature",
      "properties": {
        "norad_id": 66455,
        "name": "ATLAS 5 CENTAUR R/B",
        "group": "last-30-days",
        "lat": 4.442860605965063,
        "lon": 65.71433893765045,
        "alt_km": 13789.558815410262,
        "timestamp": "2025-12-11T05:00:25.074157+00:00",
        "meta_object_name": "ATLAS 5 CENTAUR R/B",
        "meta_object_id": "2025-261B",
        "meta_epoch": "2025-12-10T19:10:51.172032",
        "meta_mean_motion": 2.28259777,
        "meta_eccentricity": 0.23294935,
        "meta_inclination": 6.1482,
        "meta_ra_of_asc_node": 291.8106,
        "meta_arg_of_pericenter": 186.0942,
        "meta_mean_anomaly": 350.1221,
        "meta_ephemeris_type": 0,
        "meta_classification_type": "U",
        "meta_norad_cat_id": 66455,
        "meta_element_set_no": 999,
        "meta_rev_at_epoch": 60,
        "meta_bstar": 0,
        "meta_mean_motion_dot": -7.9e-07,
        "meta_mean_motion_ddot": 0,
        "tle_line1": "1 66455U 25261B   25344.79920338 -.00000079  00000+0  00000+0 0  9996",
        "tle_line2": "2 66455   6.1482 291.8106 2329493 186.0942 350.1221  2.28259777   607"
      },
      "geometry": {
        "type": "Point",
        "coordinates": [
          65.71433893765045,
          4.442860605965063
        ]
      }
    },
    {
      "type": "Feature",
      "properties": {
        "norad_id": 66456,
        "name": "STARLINK-35643",
        "group": "last-30-days",
        "lat": -40.22015087187307,
        "lon": 15.26909997682425,
        "alt_km": 446.4327692677489,
        "timestamp": "2025-12-11T05:00:25.074169+00:00",
        "meta_object_name": "STARLINK-35643",
        "meta_object_id": "2025-262A",
        "meta_epoch": "2025-12-10T22:00:03.000096",
        "meta_mean_motion": 15.40730587,
        "meta_eccentricity": 0.00014247,
        "meta_inclination": 43,
        "meta_ra_of_asc_node": 82.1155,
        "meta_arg_of_pericenter": 268.6634,
        "meta_mean_anomaly": 198.9853,
        "meta_ephemeris_type": 0,
        "meta_classification_type": "U",
        "meta_norad_cat_id": 66456,
        "meta_element_set_no": 999,
        "meta_rev_at_epoch": 534,
        "meta_bstar": -0.0020679125,
        "meta_mean_motion_dot": -0.00085808,
        "meta_mean_motion_ddot": 0,
        "tle_line1": "1 66456U 25262A   25344.91670139 -.00085808  00000+0 -20679-2 0  9994",
        "tle_line2": "2 66456  43.0000  82.1155 0001424 268.6634 198.9853 15.40730587  5349"
      },
      "geometry": {
        "type": "Point",
        "coordinates": [
          15.26909997682425,
          -40.22015087187307
        ]
      }
    },
    {
      "type": "Feature",
      "properties": {
        "norad_id": 66457,
        "name": "STARLINK-35466",
        "group": "last-30-days",
        "lat": -29.60697453881842,
        "lon": 42.79741473717921,
        "alt_km": 446.0468686576414,
        "timestamp": "2025-12-11T05:00:25.074179+00:00",
        "meta_object_name": "STARLINK-35466",
        "meta_object_id": "2025-262B",
        "meta_epoch": "2025-12-10T22:00:03.000096",
        "meta_mean_motion": 15.40729264,
        "meta_eccentricity": 0.00012336,
        "meta_inclination": 43.0001,
        "meta_ra_of_asc_node": 82.0546,
        "meta_arg_of_pericenter": 282.91,
        "meta_mean_anomaly": 209.6224,
        "meta_ephemeris_type": 0,
        "meta_classification_type": "U",
        "meta_norad_cat_id": 66457,
        "meta_element_set_no": 999,
        "meta_rev_at_epoch": 534,
        "meta_bstar": -0.0020940512,
        "meta_mean_motion_dot": -0.00086871,
        "meta_mean_motion_ddot": 0,
        "tle_line1": "1 66457U 25262B   25344.91670139 -.00086871  00000+0 -20941-2 0  9998",
        "tle_line2": "2 66457  43.0001  82.0546 0001233 282.9100 209.6224 15.40729264  5341"
      },
      "geometry": {
        "type": "Point",
        "coordinates": [
          42.79741473717921,
          -29.60697453881842
        ]
      }
    },
    {
      "type": "Feature",
      "properties": {
        "norad_id": 66458,
        "name": "STARLINK-35684",
        "group": "last-30-days",
        "lat": -35.732312904308266,
        "lon": 29.864986833548475,
        "alt_km": 446.1684579259372,
        "timestamp": "2025-12-11T05:00:25.074190+00:00",
        "meta_object_name": "STARLINK-35684",
        "meta_object_id": "2025-262C",
        "meta_epoch": "2025-12-10T22:00:03.000096",
        "meta_mean_motion": 15.40769001,
        "meta_eccentricity": 0.00013236,
        "meta_inclination": 43.0001,
        "meta_ra_of_asc_node": 82.0849,
        "meta_arg_of_pericenter": 286.8329,
        "meta_mean_anomaly": 193.1528,
        "meta_ephemeris_type": 0,
        "meta_classification_type": "U",
        "meta_norad_cat_id": 66458,
        "meta_element_set_no": 999,
        "meta_rev_at_epoch": 534,
        "meta_bstar": -0.0024257362,
        "meta_mean_motion_dot": -0.00100538,
        "meta_mean_motion_ddot": 0,
        "tle_line1": "1 66458U 25262C   25344.91670139 -.00100538  00000+0 -24257-2 0  9990",
        "tle_line2": "2 66458  43.0001  82.0849 0001323 286.8329 193.1528 15.40769001  5341"
      },
      "geometry": {
        "type": "Point",
        "coordinates": [
          29.864986833548475,
          -35.732312904308266
        ]
      }
    },
    {
      "type": "Feature",
      "properties": {
        "norad_id": 66459,
        "name": "STARLINK-35449",
        "group": "last-30-days",
        "lat": -22.410672791862996,
        "lon": 54.074706803293225,
        "alt_km": 445.6978037017607,
        "timestamp": "2025-12-11T05:00:25.074204+00:00",
        "meta_object_name": "STARLINK-35449",
        "meta_object_id": "2025-262D",
        "meta_epoch": "2025-12-10T22:00:03.000096",
        "meta_mean_motion": 15.40738515,
        "meta_eccentricity": 0.00015335,
        "meta_inclination": 43.0001,
        "meta_ra_of_asc_node": 82.0237,
        "meta_arg_of_pericenter": 266.4658,
        "meta_mean_anomaly": 238.5056,
        "meta_ephemeris_type": 0,
        "meta_classification_type": "U",
        "meta_norad_cat_id": 66459,
        "meta_element_set_no": 999,
        "meta_rev_at_epoch": 534,
        "meta_bstar": -0.0024250781,
        "meta_mean_motion_dot": -0.00100412,
        "meta_mean_motion_ddot": 0,
        "tle_line1": "1 66459U 25262D   25344.91670139 -.00100412  00000+0 -24251-2 0  9996",
        "tle_line2": "2 66459  43.0001  82.0237 0001533 266.4658 238.5056 15.40738515  5341"
      },
      "geometry": {
        "type": "Point",
        "coordinates": [
          54.074706803293225,
          -22.410672791862996
        ]
      }
    }
  ]
}